{"carriers":[{"id":"4a70825d-b9b0-4100-a804-0d44c12c2650","name":"Warehouse Services Inc.","phoneNumber":"603.513.7249","address":{"street1":"35699 Rick Drive","street2":"Apt. 372","zipCode":"35902","city":"Whitneyshire","state":"AL"}},{"id":"7d40324a-923b-4cbe-9ee1-215604ee22d9","name":"Dupr√© Logistics","phoneNumber":"(605) 937-5062 x4495","address":{"street1":"095 Leannon Club","street2":"Apt. 980","zipCode":"28367","city":"West Karlville","state":"NC"}},{"id":"a6f1b0fc-f6f5-4f73-be32-67a4424dd56f","name":"Hub Group","phoneNumber":"1-907-704-0881","address":{"street1":"9570 Shirleen Dam","street2":"Suite 507","zipCode":"29216","city":"Lake Johnsie","state":"SC"}},{"id":"22771bdb-136f-4680-ac50-4b6f6171b094","name":"Averitt Express","phoneNumber":"(469) 412-1561 x8325","address":{"street1":"738 Hansen Tunnel","street2":"Suite 671","zipCode":"98448","city":"Ratketown","state":"WA"}},{"id":"dc63ce22-583e-4ae3-9124-a74b3aafc7f3","name":"UPS Supply Chain Solutions","phoneNumber":"713.775.6981 x2379","address":{"street1":"353 Theron Turnpike","street2":"Suite 035","zipCode":"82710","city":"Harveyland","state":"WY"}},{"id":"69c633ce-fde8-4e13-9129-93f498be4fb2","name":"DHL Supply Chain","phoneNumber":"414.475.1722","address":{"street1":"5570 Warner Bypass","street2":"Suite 468","zipCode":"83323","city":"West Rosaliaborough","state":"ID"}},{"id":"7d35d9ed-9602-403a-a323-ef947922c2fd","name":"Commercial Warehousing","phoneNumber":"318.650.5975","address":{"street1":"24442 Burl Extensions","street2":"Suite 008","zipCode":"59262","city":"Port Maryellenborough","state":"MT"}},{"id":"df134c64-d1e5-43fc-82ca-ffcbccc96c79","name":"Great Plains Transport","phoneNumber":"781.564.1381","address":{"street1":"243 Bogisich Corners","street2":"Apt. 029","zipCode":"92341","city":"North Shaunda","state":"CA"}},{"id":"2082def3-7539-49ec-8ec9-886105214082","name":"PAM Transportation","phoneNumber":"(216) 321-6514","address":{"street1":"533 Wunsch Hollow","street2":"Suite 130","zipCode":"49289","city":"Pricetown","state":"MI"}},{"id":"ecc07731-7892-4d1f-869d-21bf8d48e3f2","name":"FedEx","phoneNumber":"1-660-814-3209","address":{"street1":"38177 Howard Shoal","street2":"Suite 167","zipCode":"06856","city":"Wildermanmouth","state":"CT"}}]}