{"carriers":[{"id":"4a9645d7-79fa-431a-ae50-8a0d8d5ecf73","name":"Warehouse Services Inc.","phoneNumber":"(480) 856-0887 x2030","address":{"street1":"14306 Bashirian Summit","street2":"Suite 929","zipCode":"59020","city":"East Dwainstad","state":"MT"}},{"id":"12b8a9c2-2d1a-4b8d-b236-1efb76ec90c8","name":"Dupr√© Logistics","phoneNumber":"786.607.3961","address":{"street1":"2313 Casper Meadows","street2":"Suite 144","zipCode":"27872","city":"Lake Margareteborough","state":"NC"}},{"id":"ddd4bcd8-8143-468a-bd7b-1373b5ddb162","name":"Hub Group","phoneNumber":"1-225-435-3375","address":{"street1":"2655 Tony Circle","street2":"Suite 922","zipCode":"60654","city":"Jakebury","state":"IL"}},{"id":"5c525afd-557b-4d7e-8961-faffb3b1894f","name":"Averitt Express","phoneNumber":"252.740.7696 x7511","address":{"street1":"653 Bayer Park","street2":"Suite 795","zipCode":"83553","city":"New Eddyport","state":"ID"}},{"id":"e8055db1-a2dd-4649-944e-6bfad2ad72d0","name":"UPS Supply Chain Solutions","phoneNumber":"701-667-7472 x7949","address":{"street1":"62544 Willms Square","street2":"Suite 649","zipCode":"39108","city":"Roobmouth","state":"MS"}},{"id":"d76394d4-9319-4478-9e78-b728a3da6218","name":"DHL Supply Chain","phoneNumber":"631-860-6021","address":{"street1":"721 Marvin Greens","street2":"Suite 178","zipCode":"46947","city":"Breitenbergside","state":"IN"}},{"id":"0eca8a04-2150-4172-b176-e0a99830411f","name":"Commercial Warehousing","phoneNumber":"1-203-269-9365 x0949","address":{"street1":"413 Bernier Via","street2":"Apt. 720","zipCode":"18462","city":"East Rudyfort","state":"PA"}},{"id":"53dbac05-2863-4f2d-90c7-1b6acc27c4be","name":"Great Plains Transport","phoneNumber":"803.757.1996 x7439","address":{"street1":"23822 Anderson Neck","street2":"Apt. 136","zipCode":"44411","city":"Reginaldmouth","state":"OH"}},{"id":"69cb4388-dcf1-4b10-ba47-d374395e6fec","name":"PAM Transportation","phoneNumber":"571-503-6114 x6808","address":{"street1":"353 Greenfelder Stream","street2":"Suite 472","zipCode":"35031","city":"Lake Capriceborough","state":"AL"}},{"id":"b2cf05cc-3b95-4f61-8a05-f93ac8885852","name":"FedEx","phoneNumber":"801.386.3371 x2566","address":{"street1":"2333 Nancie Dam","street2":"Apt. 515","zipCode":"76066","city":"Mikelhaven","state":"TX"}}]}