{"carriers":[{"id":"077af495-509e-442f-924c-c2c4c1ee5825","name":"Warehouse Services Inc.","phoneNumber":"1-210-518-5698 x4868","address":{"street1":"502 Jast Isle","street2":"Apt. 736","zipCode":"31550","city":"West Anderson","state":"GA"}},{"id":"31707ee7-a461-4094-8ba6-7c370bc33e2e","name":"Dupr√© Logistics","phoneNumber":"619.901.8968 x3144","address":{"street1":"015 Pearl Hills","street2":"Apt. 368","zipCode":"24315","city":"Lake Lyle","state":"VA"}},{"id":"f5e047fb-eb8d-44a7-8b06-9981f8dcd7b1","name":"Hub Group","phoneNumber":"(253) 307-8588 x1807","address":{"street1":"50464 Macejkovic Hill","street2":"Apt. 438","zipCode":"82643","city":"East Matt","state":"WY"}},{"id":"6b0f2a26-e212-46c4-b77f-ed672930f371","name":"Averitt Express","phoneNumber":"301.206.5571","address":{"street1":"1767 Jaskolski Course","street2":"Suite 209","zipCode":"80247","city":"Gleasonview","state":"CO"}},{"id":"3c423f4f-c63d-4a10-b34e-8bf40a67978a","name":"UPS Supply Chain Solutions","phoneNumber":"1-775-401-6139","address":{"street1":"793 Cathleen Rest","street2":"Apt. 003","zipCode":"72204","city":"Botsfordmouth","state":"AR"}},{"id":"25721a02-81e2-414e-9e45-75e840d2a01a","name":"DHL Supply Chain","phoneNumber":"434-330-8741 x0991","address":{"street1":"462 Sid Lane","street2":"Apt. 624","zipCode":"84111","city":"Stokeschester","state":"UT"}},{"id":"7a8650cd-2511-4632-8830-5747818eaf32","name":"Commercial Warehousing","phoneNumber":"1-724-228-4527 x3694","address":{"street1":"030 Zboncak Forest","street2":"Apt. 519","zipCode":"59758","city":"Mendyberg","state":"MT"}},{"id":"7d4ff22c-5c0d-45d1-a7f0-5c19ded1c190","name":"Great Plains Transport","phoneNumber":"(814) 614-0552 x6117","address":{"street1":"1903 Walter Mountain","street2":"Apt. 095","zipCode":"59215","city":"South Redaberg","state":"MT"}},{"id":"0e87a830-fe2c-48a4-a789-48c3f392cae4","name":"PAM Transportation","phoneNumber":"228-480-7527 x7958","address":{"street1":"60881 Howe Pike","street2":"Suite 334","zipCode":"36075","city":"North Yesenia","state":"AL"}},{"id":"8cfd7f0e-0e49-44c1-a6b2-242df94351d3","name":"FedEx","phoneNumber":"(610) 504-1528 x8299","address":{"street1":"04287 Hamill Gardens","street2":"Apt. 771","zipCode":"97045","city":"Horacioton","state":"OR"}}]}